<?xml version="1.0" encoding="UTF-8"?>
<ndm xmlns:xsi="http://www.w3.org/2001/XMLSchema-instance" xsi:noNamespaceSchemaLocation="https://sanaregistry.org/r/ndmxml_unqualified/ndmxml-2.0.0-master-2.0.xsd">
<omm id="CCSDS_OMM_VERS" version="2.0">
<header><CREATION_DATE/><ORIGINATOR/></header><body><segment><metadata><OBJECT_NAME>ORBCOMM FM05 [-]</OBJECT_NAME><OBJECT_ID>1997-084F</OBJECT_ID><CENTER_NAME>EARTH</CENTER_NAME><REF_FRAME>TEME</REF_FRAME><TIME_SYSTEM>UTC</TIME_SYSTEM><MEAN_ELEMENT_THEORY>SGP4</MEAN_ELEMENT_THEORY></metadata><data><meanElements><EPOCH>2024-03-21T12:51:03.980736</EPOCH><MEAN_MOTION>14.42349802</MEAN_MOTION><ECCENTRICITY>.0001746</ECCENTRICITY><INCLINATION>45.0169</INCLINATION><RA_OF_ASC_NODE>15.2880</RA_OF_ASC_NODE><ARG_OF_PERICENTER>80.6236</ARG_OF_PERICENTER><MEAN_ANOMALY>279.4812</MEAN_ANOMALY></meanElements><tleParameters><EPHEMERIS_TYPE>0</EPHEMERIS_TYPE><CLASSIFICATION_TYPE>U</CLASSIFICATION_TYPE><NORAD_CAT_ID>25117</NORAD_CAT_ID><ELEMENT_SET_NO>999</ELEMENT_SET_NO><REV_AT_EPOCH>37517</REV_AT_EPOCH><BSTAR>.10687E-2</BSTAR><MEAN_MOTION_DOT>.3422E-4</MEAN_MOTION_DOT><MEAN_MOTION_DDOT>0</MEAN_MOTION_DDOT></tleParameters></data></segment></body></omm>
<omm id="CCSDS_OMM_VERS" version="2.0">
<header><CREATION_DATE/><ORIGINATOR/></header><body><segment><metadata><OBJECT_NAME>ORBCOMM FM06 [+]</OBJECT_NAME><OBJECT_ID>1997-084G</OBJECT_ID><CENTER_NAME>EARTH</CENTER_NAME><REF_FRAME>TEME</REF_FRAME><TIME_SYSTEM>UTC</TIME_SYSTEM><MEAN_ELEMENT_THEORY>SGP4</MEAN_ELEMENT_THEORY></metadata><data><meanElements><EPOCH>2024-03-21T12:40:16.177728</EPOCH><MEAN_MOTION>14.42358025</MEAN_MOTION><ECCENTRICITY>.0000806</ECCENTRICITY><INCLINATION>45.0163</INCLINATION><RA_OF_ASC_NODE>15.5026</RA_OF_ASC_NODE><ARG_OF_PERICENTER>77.5494</ARG_OF_PERICENTER><MEAN_ANOMALY>93.1862</MEAN_ANOMALY></meanElements><tleParameters><EPHEMERIS_TYPE>0</EPHEMERIS_TYPE><CLASSIFICATION_TYPE>U</CLASSIFICATION_TYPE><NORAD_CAT_ID>25118</NORAD_CAT_ID><ELEMENT_SET_NO>999</ELEMENT_SET_NO><REV_AT_EPOCH>37608</REV_AT_EPOCH><BSTAR>.11885E-2</BSTAR><MEAN_MOTION_DOT>.3823E-4</MEAN_MOTION_DOT><MEAN_MOTION_DDOT>0</MEAN_MOTION_DDOT></tleParameters></data></segment></body></omm>
<omm id="CCSDS_OMM_VERS" version="2.0">
<header><CREATION_DATE/><ORIGINATOR/></header><body><segment><metadata><OBJECT_NAME>ORBCOMM FM07 [-]</OBJECT_NAME><OBJECT_ID>1997-084H</OBJECT_ID><CENTER_NAME>EARTH</CENTER_NAME><REF_FRAME>TEME</REF_FRAME><TIME_SYSTEM>UTC</TIME_SYSTEM><MEAN_ELEMENT_THEORY>SGP4</MEAN_ELEMENT_THEORY></metadata><data><meanElements><EPOCH>2024-03-21T13:16:19.548192</EPOCH><MEAN_MOTION>14.42285551</MEAN_MOTION><ECCENTRICITY>.0002598</ECCENTRICITY><INCLINATION>45.0158</INCLINATION><RA_OF_ASC_NODE>15.8926</RA_OF_ASC_NODE><ARG_OF_PERICENTER>73.3064</ARG_OF_PERICENTER><MEAN_ANOMALY>286.8071</MEAN_ANOMALY></meanElements><tleParameters><EPHEMERIS_TYPE>0</EPHEMERIS_TYPE><CLASSIFICATION_TYPE>U</CLASSIFICATION_TYPE><NORAD_CAT_ID>25119</NORAD_CAT_ID><ELEMENT_SET_NO>999</ELEMENT_SET_NO><REV_AT_EPOCH>37610</REV_AT_EPOCH><BSTAR>.10834E-2</BSTAR><MEAN_MOTION_DOT>.3467E-4</MEAN_MOTION_DOT><MEAN_MOTION_DDOT>0</MEAN_MOTION_DDOT></tleParameters></data></segment></body></omm>
<omm id="CCSDS_OMM_VERS" version="2.0">
<header><CREATION_DATE/><ORIGINATOR/></header><body><segment><metadata><OBJECT_NAME>ORBCOMM FM03 [-]</OBJECT_NAME><OBJECT_ID>1998-007B</OBJECT_ID><CENTER_NAME>EARTH</CENTER_NAME><REF_FRAME>TEME</REF_FRAME><TIME_SYSTEM>UTC</TIME_SYSTEM><MEAN_ELEMENT_THEORY>SGP4</MEAN_ELEMENT_THEORY></metadata><data><meanElements><EPOCH>2024-03-21T12:06:15.648192</EPOCH><MEAN_MOTION>14.31949954</MEAN_MOTION><ECCENTRICITY>.004865</ECCENTRICITY><INCLINATION>107.9794</INCLINATION><RA_OF_ASC_NODE>287.3728</RA_OF_ASC_NODE><ARG_OF_PERICENTER>317.3693</ARG_OF_PERICENTER><MEAN_ANOMALY>42.3674</MEAN_ANOMALY></meanElements><tleParameters><EPHEMERIS_TYPE>0</EPHEMERIS_TYPE><CLASSIFICATION_TYPE>U</CLASSIFICATION_TYPE><NORAD_CAT_ID>25158</NORAD_CAT_ID><ELEMENT_SET_NO>999</ELEMENT_SET_NO><REV_AT_EPOCH>35918</REV_AT_EPOCH><BSTAR>.75245E-3</BSTAR><MEAN_MOTION_DOT>.1916E-4</MEAN_MOTION_DOT><MEAN_MOTION_DDOT>0</MEAN_MOTION_DDOT></tleParameters></data></segment></body></omm>
<omm id="CCSDS_OMM_VERS" version="2.0">
<header><CREATION_DATE/><ORIGINATOR/></header><body><segment><metadata><OBJECT_NAME>ORBCOMM FM04 [+]</OBJECT_NAME><OBJECT_ID>1998-007C</OBJECT_ID><CENTER_NAME>EARTH</CENTER_NAME><REF_FRAME>TEME</REF_FRAME><TIME_SYSTEM>UTC</TIME_SYSTEM><MEAN_ELEMENT_THEORY>SGP4</MEAN_ELEMENT_THEORY></metadata><data><meanElements><EPOCH>2024-03-21T12:02:50.424864</EPOCH><MEAN_MOTION>14.32205133</MEAN_MOTION><ECCENTRICITY>.0044259</ECCENTRICITY><INCLINATION>107.9776</INCLINATION><RA_OF_ASC_NODE>290.2726</RA_OF_ASC_NODE><ARG_OF_PERICENTER>315.1677</ARG_OF_PERICENTER><MEAN_ANOMALY>44.5890</MEAN_ANOMALY></meanElements><tleParameters><EPHEMERIS_TYPE>0</EPHEMERIS_TYPE><CLASSIFICATION_TYPE>U</CLASSIFICATION_TYPE><NORAD_CAT_ID>25159</NORAD_CAT_ID><ELEMENT_SET_NO>999</ELEMENT_SET_NO><REV_AT_EPOCH>35935</REV_AT_EPOCH><BSTAR>.70564E-3</BSTAR><MEAN_MOTION_DOT>.1793E-4</MEAN_MOTION_DOT><MEAN_MOTION_DDOT>0</MEAN_MOTION_DDOT></tleParameters></data></segment></body></omm>
<omm id="CCSDS_OMM_VERS" version="2.0">
<header><CREATION_DATE/><ORIGINATOR/></header><body><segment><metadata><OBJECT_NAME>ORBCOMM FM17 [-]</OBJECT_NAME><OBJECT_ID>1998-046A</OBJECT_ID><CENTER_NAME>EARTH</CENTER_NAME><REF_FRAME>TEME</REF_FRAME><TIME_SYSTEM>UTC</TIME_SYSTEM><MEAN_ELEMENT_THEORY>SGP4</MEAN_ELEMENT_THEORY></metadata><data><meanElements><EPOCH>2024-03-21T12:09:09.926496</EPOCH><MEAN_MOTION>14.32922503</MEAN_MOTION><ECCENTRICITY>.0002378</ECCENTRICITY><INCLINATION>44.9934</INCLINATION><RA_OF_ASC_NODE>230.4003</RA_OF_ASC_NODE><ARG_OF_PERICENTER>132.1563</ARG_OF_PERICENTER><MEAN_ANOMALY>227.9486</MEAN_ANOMALY></meanElements><tleParameters><EPHEMERIS_TYPE>0</EPHEMERIS_TYPE><CLASSIFICATION_TYPE>U</CLASSIFICATION_TYPE><NORAD_CAT_ID>25413</NORAD_CAT_ID><ELEMENT_SET_NO>999</ELEMENT_SET_NO><REV_AT_EPOCH>33836</REV_AT_EPOCH><BSTAR>.77365E-3</BSTAR><MEAN_MOTION_DOT>.1993E-4</MEAN_MOTION_DOT><MEAN_MOTION_DDOT>0</MEAN_MOTION_DDOT></tleParameters></data></segment></body></omm>
<omm id="CCSDS_OMM_VERS" version="2.0">
<header><CREATION_DATE/><ORIGINATOR/></header><body><segment><metadata><OBJECT_NAME>ORBCOMM FM18 [-]</OBJECT_NAME><OBJECT_ID>1998-046B</OBJECT_ID><CENTER_NAME>EARTH</CENTER_NAME><REF_FRAME>TEME</REF_FRAME><TIME_SYSTEM>UTC</TIME_SYSTEM><MEAN_ELEMENT_THEORY>SGP4</MEAN_ELEMENT_THEORY></metadata><data><meanElements><EPOCH>2024-03-21T12:37:36.535584</EPOCH><MEAN_MOTION>14.35612975</MEAN_MOTION><ECCENTRICITY>.0004742</ECCENTRICITY><INCLINATION>44.9931</INCLINATION><RA_OF_ASC_NODE>158.4491</RA_OF_ASC_NODE><ARG_OF_PERICENTER>188.1916</ARG_OF_PERICENTER><MEAN_ANOMALY>171.8855</MEAN_ANOMALY></meanElements><tleParameters><EPHEMERIS_TYPE>0</EPHEMERIS_TYPE><CLASSIFICATION_TYPE>U</CLASSIFICATION_TYPE><NORAD_CAT_ID>25414</NORAD_CAT_ID><ELEMENT_SET_NO>999</ELEMENT_SET_NO><REV_AT_EPOCH>33913</REV_AT_EPOCH><BSTAR>.80316E-3</BSTAR><MEAN_MOTION_DOT>.2196E-4</MEAN_MOTION_DOT><MEAN_MOTION_DDOT>0</MEAN_MOTION_DDOT></tleParameters></data></segment></body></omm>
<omm id="CCSDS_OMM_VERS" version="2.0">
<header><CREATION_DATE/><ORIGINATOR/></header><body><segment><metadata><OBJECT_NAME>ORBCOMM FM19 [+]</OBJECT_NAME><OBJECT_ID>1998-046C</OBJECT_ID><CENTER_NAME>EARTH</CENTER_NAME><REF_FRAME>TEME</REF_FRAME><TIME_SYSTEM>UTC</TIME_SYSTEM><MEAN_ELEMENT_THEORY>SGP4</MEAN_ELEMENT_THEORY></metadata><data><meanElements><EPOCH>2024-03-21T11:44:27.853728</EPOCH><MEAN_MOTION>14.35448028</MEAN_MOTION><ECCENTRICITY>.0003509</ECCENTRICITY><INCLINATION>44.9939</INCLINATION><RA_OF_ASC_NODE>159.9677</RA_OF_ASC_NODE><ARG_OF_PERICENTER>188.2298</ARG_OF_PERICENTER><MEAN_ANOMALY>185.9363</MEAN_ANOMALY></meanElements><tleParameters><EPHEMERIS_TYPE>0</EPHEMERIS_TYPE><CLASSIFICATION_TYPE>U</CLASSIFICATION_TYPE><NORAD_CAT_ID>25415</NORAD_CAT_ID><ELEMENT_SET_NO>999</ELEMENT_SET_NO><REV_AT_EPOCH>33909</REV_AT_EPOCH><BSTAR>.77694E-3</BSTAR><MEAN_MOTION_DOT>.2112E-4</MEAN_MOTION_DOT><MEAN_MOTION_DDOT>0</MEAN_MOTION_DDOT></tleParameters></data></segment></body></omm>

</ndm>
