ORBCOMM FM05 [-]        
1 25117U 97084F   24081.53546274  .00003422  00000+0  10687-2 0  9999
2 25117  45.0169  15.2880 0001746  80.6236 279.4812 14.42349802375173
ORBCOMM FM06 [+]        
1 25118U 97084G   24081.52796502  .00003823  00000+0  11885-2 0  9996
2 25118  45.0163  15.5026 0000806  77.5494  93.1862 14.42358025376084
ORBCOMM FM07 [-]        
1 25119U 97084H   24081.55300403  .00003467  00000+0  10834-2 0  9998
2 25119  45.0158  15.8926 0002598  73.3064 286.8071 14.42285551376084
ORBCOMM FM03 [-]        
1 25158U 98007B   24081.50434778  .00001916  00000+0  75245-3 0  9990
2 25158 107.9794 287.3728 0048650 317.3693  42.3674 14.31949954359183
ORBCOMM FM04 [+]        
1 25159U 98007C   24081.50197251  .00001793  00000+0  70564-3 0  9995
2 25159 107.9776 290.2726 0044259 315.1677  44.5890 14.32205133359352
ORBCOMM FM17 [-]        
1 25413U 98046A   24081.50636489  .00001993  00000+0  77365-3 0  9990
2 25413  44.9934 230.4003 0002378 132.1563 227.9486 14.32922503338365
ORBCOMM FM18 [-]        
1 25414U 98046B   24081.52611731  .00002196  00000+0  80316-3 0  9992
2 25414  44.9931 158.4491 0004742 188.1916 171.8855 14.35612975339138
ORBCOMM FM19 [+]        
1 25415U 98046C   24081.48921127  .00002112  00000+0  77694-3 0  9994
2 25415  44.9939 159.9677 0003509 188.2298 185.9363 14.35448028339094
